{
  "type": "FeatureCollection",
  "features": [
    {
      "type": "Feature",
      "properties": {
        "shapeName": "Hebei Province",
        "shapeISO": "CHN",
        "shapeID": "43563684B58229551045164",
        "shapeGroup": "CHN",
        "shapeType": "ADM1"
      },
      "geometry": {
        "type": "MultiPolygon",
        "coordinates": [
          [
            [
              [
                117.29679354500001,
                40.153405484000075
              ],
              [
                117.11883572600004,
                40.14668827200006
              ],
              [
                117.02119416300002,
                40.150080771000034
              ],
              [
                116.8450555610001,
                40.09470911300008
              ],
              [
                116.83700666800007,
                40.03803885200006
              ],
              [
                117.05448105800008,
                39.89006551500006
              ],
              [
                117.027851542,
                39.77589083400005
              ],
              [
                117.03319528000009,
                39.77543450500008
              ],
              [
                117.24754505900012,
                39.75712760400006
              ],
              [
                117.28527020800004,
                39.94623103200007
              ],
              [
                117.29858496700001,
                40.15347310000004
              ],
              [
                117.29679354500001,
                40.153405484000075
              ]
            ]
          ],
          [
            [
              [
                115.54944646400008,
                36.22023203300006
              ],
              [
                115.58311355,
                36.211007005000056
              ],
              [
                115.61020249600006,
                36.30711706300008
              ],
              [
                115.4314154540001,
                36.52075497900006
              ],
              [
                115.46933997700012,
                36.73814644700008
              ],
              [
                115.77815395900006,
                36.92461214700006
              ],
              [
                116.1357280420001,
                37.45117518600006
              ],
              [
                116.29826171700006,
                37.47697691500008
              ],
              [
                116.43370644600009,
                37.70879148100005
              ],
              [
                116.54748001700011,
                37.65733954900003
              ],
              [
                116.94297862400003,
                37.91851621100005
              ],
              [
                117.23012144900008,
                37.95697229000007
              ],
              [
                117.51184648500009,
                37.93561028600004
              ],
              [
                117.58227774400007,
                37.99113857800006
              ],
              [
                117.6039488990001,
                38.13616779800003
              ],
              [
                117.79357152000011,
                38.16599106100006
              ],
              [
                117.88327616900006,
                38.30339074800003
              ],
              [
                117.83691383300004,
                38.34042515200008
              ],
              [
                117.6418734240001,
                38.64996538100007
              ],
              [
                117.64775917000009,
                38.68902605900007
              ],
              [
                117.59816703500007,
                38.687853045000054
              ],
              [
                117.51827848300002,
                38.677459283000076
              ],
              [
                117.37625439200008,
                38.73114413500008
              ],
              [
                117.16099912700008,
                38.81764765100007
              ],
              [
                117.03450892100011,
                38.789977941000075
              ],
              [
                116.92133347300012,
                38.824563399000056
              ],
              [
                116.79262414000004,
                38.96273727100004
              ],
              [
                116.80815802500001,
                39.08341879500006
              ],
              [
                116.87917007200008,
                39.15572879300004
              ],
              [
                116.89692308300005,
                39.33446254100005
              ],
              [
                116.86141706,
                39.40651431900005
              ],
              [
                116.88360832400008,
                39.48020457000007
              ],
              [
                116.91689522100012,
                39.60170845400006
              ],
              [
                116.90421809400004,
                39.70628278500004
              ],
              [
                116.87861529000008,
                39.69792597900005
              ],
              [
                116.660170031,
                39.695258042000034
              ],
              [
                116.55961586400008,
                39.64988735000003
              ],
              [
                116.55268109500003,
                39.57509420400004
              ],
              [
                116.38971399700006,
                39.604486863000034
              ],
              [
                116.27529029000004,
                39.66857300800007
              ],
              [
                115.84186715900012,
                39.628526125000064
              ],
              [
                115.6719652920001,
                39.72993316900005
              ],
              [
                115.57141112500005,
                39.831191268000055
              ],
              [
                115.54020466000009,
                39.950909412000044
              ],
              [
                115.60608497600003,
                40.115511757000036
              ],
              [
                115.76099664300011,
                40.26871147300005
              ],
              [
                115.91438266300008,
                40.30662943400006
              ],
              [
                115.99391615500008,
                40.44511963900004
              ],
              [
                115.89876001400012,
                40.542325075000065
              ],
              [
                115.93426603700004,
                40.62753376400008
              ],
              [
                116.24387855600003,
                40.75137764400006
              ],
              [
                116.39726457600011,
                40.76321151800005
              ],
              [
                116.368859756,
                40.91364039300004
              ],
              [
                116.47537782600011,
                40.894318662000046
              ],
              [
                116.49100047500008,
                40.97800538400003
              ],
              [
                116.62166264000007,
                41.06694018300004
              ],
              [
                116.69693540900005,
                41.07550586600007
              ],
              [
                116.75232480400007,
                41.073364550000065
              ],
              [
                117.14005057500003,
                40.75352941500006
              ],
              [
                117.17413635600008,
                40.752453538000054
              ],
              [
                117.27923418300009,
                40.79332460000006
              ],
              [
                117.40989634700009,
                40.76321151800005
              ],
              [
                117.47238694900011,
                40.76428722000003
              ],
              [
                117.50647273100003,
                40.71048078000007
              ],
              [
                117.34882598900003,
                40.60489394600006
              ],
              [
                117.32752237500006,
                40.52829299100006
              ],
              [
                117.36018791700008,
                40.425661655000056
              ],
              [
                117.50232562800011,
                40.30506980200005
              ],
              [
                117.49548738900012,
                40.30002925500003
              ],
              [
                117.64503143500008,
                40.280804196000076
              ],
              [
                117.75228802900006,
                40.22530723800003
              ],
              [
                117.7322910370001,
                40.08288862000006
              ],
              [
                117.64503143500008,
                40.03836506000005
              ],
              [
                117.63775980100002,
                39.96037883500003
              ],
              [
                117.65559802700011,
                39.867654542000025
              ],
              [
                117.76211609600011,
                39.72142924100007
              ],
              [
                117.92828428300004,
                39.686463795000066
              ],
              [
                117.96237006600006,
                39.525613726000074
              ],
              [
                118.12995849300012,
                39.49274128300004
              ],
              [
                118.15694307100011,
                39.42914380600007
              ],
              [
                118.1192513850001,
                39.20940789700006
              ],
              [
                118.23241244000008,
                39.20210070200005
              ],
              [
                118.39494611400005,
                39.118083322000075
              ],
              [
                118.63332883600003,
                39.21469465300004
              ],
              [
                118.87171155900012,
                39.210496920000026
              ],
              [
                119.01257407700007,
                39.22308936600007
              ],
              [
                119.09925870300003,
                39.43681521600007
              ],
              [
                119.28888132300006,
                39.69992686300003
              ],
              [
                119.58144193600003,
                39.86230482900004
              ],
              [
                119.58685972400008,
                39.94958035900004
              ],
              [
                119.97126983200008,
                40.07433721700005
              ],
              [
                119.85697144900007,
                40.128773067000054
              ],
              [
                119.85555120700008,
                40.280630838000036
              ],
              [
                119.71210687500002,
                40.39105578200008
              ],
              [
                119.67970762900006,
                40.591346816000055
              ],
              [
                119.37346818000003,
                40.64693321500005
              ],
              [
                119.2847031230001,
                40.75292423600007
              ],
              [
                119.10051563000002,
                40.78653690500005
              ],
              [
                118.9562724110001,
                40.96104861500004
              ],
              [
                119.08054349200006,
                41.05649924800008
              ],
              [
                119.07166698700007,
                41.16517767700003
              ],
              [
                119.27138836600011,
                41.25365922000003
              ],
              [
                119.28470498700005,
                41.38653246000007
              ],
              [
                119.10120910700005,
                41.41019032400004
              ],
              [
                118.99025278600004,
                41.363364173000036
              ],
              [
                118.47014502800005,
                41.430991121000034
              ],
              [
                118.43547117700007,
                41.48815895700005
              ],
              [
                118.43200379200005,
                41.61530616500005
              ],
              [
                118.2378302300001,
                41.83269074700007
              ],
              [
                118.24823238500005,
                41.907569359000036
              ],
              [
                118.275971464,
                42.06993437300008
              ],
              [
                118.08859397600008,
                42.26833109900008
              ],
              [
                118.00648629900002,
                42.435608857000034
              ],
              [
                117.82007967900006,
                42.66284883800006
              ],
              [
                117.64920694300008,
                42.68079652900008
              ],
              [
                117.42729430000009,
                42.58610487200008
              ],
              [
                117.23866855400001,
                42.582837073000064
              ],
              [
                116.94130561100008,
                42.46835620500008
              ],
              [
                116.92355259900012,
                42.36842327000005
              ],
              [
                116.95240124400004,
                42.26833109900008
              ],
              [
                116.89914220900005,
                42.051193356000056
              ],
              [
                116.83034929000007,
                42.02482300600008
              ],
              [
                116.57736887600004,
                42.051193356000056
              ],
              [
                116.46641255500003,
                42.10225476800008
              ],
              [
                116.16780135400006,
                41.94110715900007
              ],
              [
                116.06072428700008,
                41.94747639900004
              ],
              [
                115.92710802200008,
                41.990052809000076
              ],
              [
                115.5121881880001,
                41.825043031000064
              ],
              [
                115.31468593500006,
                41.66277941200008
              ],
              [
                115.00844648900011,
                41.684327765000035
              ],
              [
                114.97737871900006,
                41.732371175000026
              ],
              [
                115.02619950100006,
                42.04295379800004
              ],
              [
                114.91169257600006,
                42.195311262000075
              ],
              [
                114.6035002960001,
                42.22266251700006
              ],
              [
                114.28394609100008,
                41.90529434200005
              ],
              [
                114.24844006800004,
                41.697783539000056
              ],
              [
                114.03966465400003,
                41.550213126000074
              ],
              [
                113.99847766700009,
                41.39378211600007
              ],
              [
                114.06522898900005,
                41.298888773000044
              ],
              [
                113.9487692350001,
                41.16858559600007
              ],
              [
                114.22953311100002,
                40.814569464000044
              ],
              [
                114.2123338670001,
                40.79157821800004
              ],
              [
                114.34048943300002,
                40.68059942900004
              ],
              [
                114.40290236300007,
                40.48045727600004
              ],
              [
                114.52772822500003,
                40.41449019500004
              ],
              [
                114.49998914500009,
                40.36959560100007
              ],
              [
                114.29194604100007,
                40.28765195400007
              ],
              [
                114.170587565,
                40.26119729800007
              ],
              [
                114.12204417400005,
                40.18177124700003
              ],
              [
                114.16018541000005,
                40.062457634000054
              ],
              [
                114.26420696200012,
                40.03060531400007
              ],
              [
                114.43410882800003,
                39.99342546400004
              ],
              [
                114.47571745000005,
                39.911026597000046
              ],
              [
                114.47225006400004,
                39.79656710800003
              ],
              [
                114.60054331200001,
                39.657896108000045
              ],
              [
                114.622318489,
                39.59144874900005
              ],
              [
                114.54242993800005,
                39.445939734000035
              ],
              [
                114.48473265100006,
                39.23999662800003
              ],
              [
                114.28501127200002,
                39.172934518000034
              ],
              [
                114.00540134100004,
                39.15744955400004
              ],
              [
                113.85006249100002,
                39.03344715900005
              ],
              [
                113.93882754900005,
                38.88504754500008
              ],
              [
                113.66809412400005,
                38.675726843000064
              ],
              [
                113.65394719200003,
                38.39734449800005
              ],
              [
                113.85158813900011,
                38.28856413600005
              ],
              [
                113.9244032260001,
                38.272232993000046
              ],
              [
                113.95907707700007,
                38.10599129600007
              ],
              [
                114.20068446700009,
                37.77971596800006
              ],
              [
                114.21178010000006,
                37.70952527000003
              ],
              [
                113.97433357000011,
                37.42104814800007
              ],
              [
                113.9452075370001,
                37.316000976000055
              ],
              [
                113.87585983500003,
                37.22770516300005
              ],
              [
                113.8862619900001,
                37.04250067600003
              ],
              [
                113.7198275080001,
                36.88735537300005
              ],
              [
                113.59500164600001,
                36.85961759700007
              ],
              [
                113.60887118700009,
                36.73467301300008
              ],
              [
                113.813192447,
                36.46220698500008
              ],
              [
                114.13656384900003,
                36.45106027800006
              ],
              [
                114.244919632,
                36.37257882200004
              ],
              [
                114.56998698100006,
                36.337672730000065
              ],
              [
                114.65125381700011,
                36.26781360500007
              ],
              [
                114.77044517800005,
                36.24596979800003
              ],
              [
                114.88963654000008,
                36.311482891000026
              ],
              [
                115.11176589500008,
                36.20226386400003
              ],
              [
                115.29597072600006,
                36.28965130300003
              ],
              [
                115.54944646400008,
                36.22023203300006
              ]
            ]
          ]
        ]
      }
    },
    {
      "type": "Feature",
      "properties": {
        "shapeName": "Tianjin Municipality",
        "shapeISO": "CHN",
        "shapeID": "43563684B84701301190484",
        "shapeGroup": "CHN",
        "shapeType": "ADM1"
      },
      "geometry": {
        "type": "Polygon",
        "coordinates": [
          [
            [
              118.1192513850001,
              39.20940789700006
            ],
            [
              118.15694307100011,
              39.42914380600007
            ],
            [
              118.12995849300012,
              39.49274128300004
            ],
            [
              117.96237006600006,
              39.525613726000074
            ],
            [
              117.92828428300004,
              39.686463795000066
            ],
            [
              117.76211609600011,
              39.72142924100007
            ],
            [
              117.65559802700011,
              39.867654542000025
            ],
            [
              117.63775980100002,
              39.96037883500003
            ],
            [
              117.64503143500008,
              40.03836506000005
            ],
            [
              117.7322910370001,
              40.08288862000006
            ],
            [
              117.75228802900006,
              40.22530723800003
            ],
            [
              117.64503143500008,
              40.280804196000076
            ],
            [
              117.49548738900012,
              40.30002925500003
            ],
            [
              117.29679354500001,
              40.153405484000075
            ],
            [
              117.29858496700001,
              40.15347310000004
            ],
            [
              117.28527020800004,
              39.94623103200007
            ],
            [
              117.24754505900012,
              39.75712760400006
            ],
            [
              117.03319528000009,
              39.77543450500008
            ],
            [
              116.993038995,
              39.735266257000035
            ],
            [
              116.90421809400004,
              39.70628278500004
            ],
            [
              116.91689522100012,
              39.60170845400006
            ],
            [
              116.88360832400008,
              39.48020457000007
            ],
            [
              116.86141706,
              39.40651431900005
            ],
            [
              116.89692308300005,
              39.33446254100005
            ],
            [
              116.87917007200008,
              39.15572879300004
            ],
            [
              116.80815802500001,
              39.08341879500006
            ],
            [
              116.79262414000004,
              38.96273727100004
            ],
            [
              116.92133347300012,
              38.824563399000056
            ],
            [
              117.03450892100011,
              38.789977941000075
            ],
            [
              117.16099912700008,
              38.81764765100007
            ],
            [
              117.37625439200008,
              38.73114413500008
            ],
            [
              117.51827848300002,
              38.677459283000076
            ],
            [
              117.59816703500007,
              38.687853045000054
            ],
            [
              117.64775917000009,
              38.68902605900007
            ],
            [
              117.6960513140001,
              39.00871077900007
            ],
            [
              117.8098248870001,
              39.13489482500006
            ],
            [
              118.10238550000008,
              39.210496920000026
            ],
            [
              118.1192513850001,
              39.20940789700006
            ]
          ]
        ]
      }
    },
    {
      "type": "Feature",
      "properties": {
        "shapeName": "Beijing Municipality",
        "shapeISO": "CHN",
        "shapeID": "43563684B17418114845297",
        "shapeGroup": "CHN",
        "shapeType": "ADM1"
      },
      "geometry": {
        "type": "Polygon",
        "coordinates": [
          [
            [
              117.03319528000009,
              39.77543450500008
            ],
            [
              117.027851542,
              39.77589083400005
            ],
            [
              117.05448105800008,
              39.89006551500006
            ],
            [
              116.83700666800007,
              40.03803885200006
            ],
            [
              116.8450555610001,
              40.09470911300008
            ],
            [
              117.02119416300002,
              40.150080771000034
            ],
            [
              117.11883572600004,
              40.14668827200006
            ],
            [
              117.29679354500001,
              40.153405484000075
            ],
            [
              117.49548738900012,
              40.30002925500003
            ],
            [
              117.50232562800011,
              40.30506980200005
            ],
            [
              117.36018791700008,
              40.425661655000056
            ],
            [
              117.32752237500006,
              40.52829299100006
            ],
            [
              117.34882598900003,
              40.60489394600006
            ],
            [
              117.50647273100003,
              40.71048078000007
            ],
            [
              117.47238694900011,
              40.76428722000003
            ],
            [
              117.40989634700009,
              40.76321151800005
            ],
            [
              117.27923418300009,
              40.79332460000006
            ],
            [
              117.17413635600008,
              40.752453538000054
            ],
            [
              117.14005057500003,
              40.75352941500006
            ],
            [
              116.75232480400007,
              41.073364550000065
            ],
            [
              116.69693540900005,
              41.07550586600007
            ],
            [
              116.62166264000007,
              41.06694018300004
            ],
            [
              116.49100047500008,
              40.97800538400003
            ],
            [
              116.47537782600011,
              40.894318662000046
            ],
            [
              116.368859756,
              40.91364039300004
            ],
            [
              116.39726457600011,
              40.76321151800005
            ],
            [
              116.24387855600003,
              40.75137764400006
            ],
            [
              115.93426603700004,
              40.62753376400008
            ],
            [
              115.89876001400012,
              40.542325075000065
            ],
            [
              115.99391615500008,
              40.44511963900004
            ],
            [
              115.91438266300008,
              40.30662943400006
            ],
            [
              115.76099664300011,
              40.26871147300005
            ],
            [
              115.60608497600003,
              40.115511757000036
            ],
            [
              115.54020466000009,
              39.950909412000044
            ],
            [
              115.57141112500005,
              39.831191268000055
            ],
            [
              115.6719652920001,
              39.72993316900005
            ],
            [
              115.84186715900012,
              39.628526125000064
            ],
            [
              116.27529029000004,
              39.66857300800007
            ],
            [
              116.38971399700006,
              39.604486863000034
            ],
            [
              116.55268109500003,
              39.57509420400004
            ],
            [
              116.55961586400008,
              39.64988735000003
            ],
            [
              116.660170031,
              39.695258042000034
            ],
            [
              116.87861529000008,
              39.69792597900005
            ],
            [
              116.90421809400004,
              39.70628278500004
            ],
            [
              116.993038995,
              39.735266257000035
            ],
            [
              117.03319528000009,
              39.77543450500008
            ]
          ]
        ]
      }
    },
    {
      "type": "Feature",
      "properties": {
        "shapeName": "Shanxi Province",
        "shapeISO": "CHN",
        "shapeID": "43563684B34303967365755",
        "shapeGroup": "CHN",
        "shapeType": "ADM1"
      },
      "geometry": {
        "type": "Polygon",
        "coordinates": [
          [
            [
              113.813192447,
              36.46220698500008
            ],
            [
              113.60887118700009,
              36.73467301300008
            ],
            [
              113.59500164600001,
              36.85961759700007
            ],
            [
              113.7198275080001,
              36.88735537300005
            ],
            [
              113.8862619900001,
              37.04250067600003
            ],
            [
              113.87585983500003,
              37.22770516300005
            ],
            [
              113.9452075370001,
              37.316000976000055
            ],
            [
              113.97433357000011,
              37.42104814800007
            ],
            [
              114.21178010000006,
              37.70952527000003
            ],
            [
              114.20068446700009,
              37.77971596800006
            ],
            [
              113.95907707700007,
              38.10599129600007
            ],
            [
              113.9244032260001,
              38.272232993000046
            ],
            [
              113.85158813900011,
              38.28856413600005
            ],
            [
              113.65394719200003,
              38.39734449800005
            ],
            [
              113.66809412400005,
              38.675726843000064
            ],
            [
              113.93882754900005,
              38.88504754500008
            ],
            [
              113.85006249100002,
              39.03344715900005
            ],
            [
              114.00540134100004,
              39.15744955400004
            ],
            [
              114.28501127200002,
              39.172934518000034
            ],
            [
              114.48473265100006,
              39.23999662800003
            ],
            [
              114.54242993800005,
              39.445939734000035
            ],
            [
              114.622318489,
              39.59144874900005
            ],
            [
              114.60054331200001,
              39.657896108000045
            ],
            [
              114.47225006400004,
              39.79656710800003
            ],
            [
              114.47571745000005,
              39.911026597000046
            ],
            [
              114.43410882800003,
              39.99342546400004
            ],
            [
              114.26420696200012,
              40.03060531400007
            ],
            [
              114.16018541000005,
              40.062457634000054
            ],
            [
              114.12204417400005,
              40.18177124700003
            ],
            [
              114.170587565,
              40.26119729800007
            ],
            [
              114.29194604100007,
              40.28765195400007
            ],
            [
              114.49998914500009,
              40.36959560100007
            ],
            [
              114.52772822500003,
              40.41449019500004
            ],
            [
              114.40290236300007,
              40.48045727600004
            ],
            [
              114.34048943300002,
              40.68059942900004
            ],
            [
              114.2123338670001,
              40.79157821800004
            ],
            [
              114.06656601300006,
              40.59640203600003
            ],
            [
              113.84118598500004,
              40.556897958000036
            ],
            [
              113.54992564100007,
              40.42240966300005
            ],
            [
              113.39042592900012,
              40.43296750500008
            ],
            [
              113.27253483700008,
              40.50946227800006
            ],
            [
              113.1095677400001,
              40.49364292100006
            ],
            [
              112.89805725100007,
              40.30616405400008
            ],
            [
              112.76282923400004,
              40.28236185000003
            ],
            [
              112.54091659100004,
              40.38808523500006
            ],
            [
              112.38120016700009,
              40.36777938200004
            ],
            [
              112.04529724000008,
              39.849827821000076
            ],
            [
              111.92610587900003,
              39.72493302500004
            ],
            [
              111.80691451800004,
              39.71659864500003
            ],
            [
              111.60103853100009,
              39.75409542300008
            ],
            [
              111.49810053600004,
              39.60398595700008
            ],
            [
              111.30306012700004,
              39.474463710000066
            ],
            [
              111.27180531600004,
              39.502719666000075
            ],
            [
              111.23717981200008,
              39.186481065000066
            ],
            [
              111.05174405800005,
              39.04723597000003
            ],
            [
              111.00736153100007,
              38.81937665100003
            ],
            [
              110.93634948500005,
              38.64626894100007
            ],
            [
              110.91471300300009,
              38.535802416000024
            ],
            [
              110.54370280200004,
              38.23955969200006
            ],
            [
              110.54717018700006,
              38.10053432700005
            ],
            [
              110.85576745600008,
              37.77237099900003
            ],
            [
              110.77948498500007,
              37.59675208400006
            ],
            [
              110.73440897900008,
              37.39592957700006
            ],
            [
              110.49515941000004,
              37.09783305700006
            ],
            [
              110.46048556000005,
              36.76801149400006
            ],
            [
              110.56797449700008,
              36.67629582200004
            ],
            [
              110.54717018700006,
              36.17410431600007
            ],
            [
              110.71013728400004,
              35.76720461900004
            ],
            [
              110.68933297400008,
              35.63768155500003
            ],
            [
              110.38767047500005,
              35.21953032700003
            ],
            [
              110.37033354800008,
              34.816295480000065
            ],
            [
              110.41887694000008,
              34.719451615000025
            ],
            [
              110.43970339000003,
              34.71986913400008
            ],
            [
              110.84536530100007,
              34.728001232000054
            ],
            [
              111.03607147900004,
              34.85329397600003
            ],
            [
              111.28225581700008,
              34.91586892400005
            ],
            [
              111.54924446600006,
              34.930083858000046
            ],
            [
              111.92025466600006,
              35.17986319600004
            ],
            [
              112.1428174450001,
              35.19031311500004
            ],
            [
              112.19699533500011,
              35.28766292900008
            ],
            [
              112.30535111900008,
              35.35397077600004
            ],
            [
              112.63583625600006,
              35.30535033700005
            ],
            [
              112.74419203900004,
              35.38047868600006
            ],
            [
              113.01508149600011,
              35.36280771400004
            ],
            [
              113.6652161930001,
              35.69789371400003
            ],
            [
              113.70855850800001,
              35.90880487100003
            ],
            [
              113.77898976600011,
              36.18914732200005
            ],
            [
              113.813192447,
              36.46220698500008
            ]
          ]
        ]
      }
    },
    {
      "type": "Feature",
      "properties": {
        "shapeName": "Henan Province",
        "shapeISO": "CHN",
        "shapeID": "43563684B96917371447908",
        "shapeGroup": "CHN",
        "shapeType": "ADM1"
      },
      "geometry": {
        "type": "Polygon",
        "coordinates": [
          [
            [
              115.48626782300005,
              31.518355946000042
            ],
            [
              115.51292789600006,
              31.51406773700006
            ],
            [
              115.54575124300004,
              31.673215666000033
            ],
            [
              115.58614920700006,
              31.795616995000046
            ],
            [
              115.78308928000001,
              31.898566249000055
            ],
            [
              115.9749796100001,
              31.924285600000076
            ],
            [
              116.08102426500011,
              32.266521918000024
            ],
            [
              115.99012884500007,
              32.486156720000054
            ],
            [
              116.01790244500012,
              32.656377966000036
            ],
            [
              115.86893495400011,
              32.60321853700003
            ],
            [
              115.79066389900004,
              32.511710495000045
            ],
            [
              115.6467461530001,
              32.53299976200003
            ],
            [
              115.53312687900006,
              32.68613345000006
            ],
            [
              115.34123655100007,
              32.70100747400005
            ],
            [
              115.30083858700004,
              32.82627571100005
            ],
            [
              115.34376142400004,
              32.93653534900005
            ],
            [
              115.22761727800003,
              33.03184154300004
            ],
            [
              115.04835131200002,
              33.05935528100002
            ],
            [
              115.00037873100007,
              33.12915922700006
            ],
            [
              115.03825182300011,
              33.20524573700004
            ],
            [
              115.27811473300005,
              33.20313311500007
            ],
            [
              115.4119329880001,
              33.29181933600006
            ],
            [
              115.43970658800004,
              33.40360436700007
            ],
            [
              115.42708222400006,
              33.48787532800003
            ],
            [
              115.48767917000009,
              33.630947898000045
            ],
            [
              115.73511669900006,
              33.69399275600006
            ],
            [
              115.75784055300005,
              33.78427643800006
            ],
            [
              115.71239284400008,
              33.96874650900003
            ],
            [
              115.74521619000006,
              34.09429270100003
            ],
            [
              115.82348724400003,
              34.161174663000054
            ],
            [
              115.96740499200007,
              34.15908540300006
            ],
            [
              116.05325066500006,
              34.12565021000006
            ],
            [
              116.13657146500009,
              34.02317266700004
            ],
            [
              116.23504150200006,
              33.884945911000045
            ],
            [
              116.31836230200008,
              33.83043133000007
            ],
            [
              116.5077277580001,
              33.89332968000008
            ],
            [
              116.62639677600009,
              33.99805723400004
            ],
            [
              116.73244143000011,
              34.05037266800008
            ],
            [
              116.71476732200006,
              34.15072784500006
            ],
            [
              116.68699372200001,
              34.194595796000044
            ],
            [
              116.676894231,
              34.28852172200004
            ],
            [
              116.65417037700001,
              34.35733409100004
            ],
            [
              116.62134703100003,
              34.388593782000044
            ],
            [
              116.53550135800003,
              34.39901108500004
            ],
            [
              116.37643437500003,
              34.48022154300003
            ],
            [
              116.28806382800008,
              34.57382777600003
            ],
            [
              116.2628151020001,
              34.66940533800005
            ],
            [
              116.2696651010001,
              34.706579856000076
            ],
            [
              116.260033797,
              34.70748066600004
            ],
            [
              116.08028455600004,
              34.70018323900007
            ],
            [
              115.82952326800012,
              34.718425602000025
            ],
            [
              115.69637568300004,
              34.67463717100003
            ],
            [
              115.54769421100002,
              34.76765988400007
            ],
            [
              115.5543515920001,
              34.91154709700004
            ],
            [
              115.44561439600011,
              34.94065817000006
            ],
            [
              115.27252253400002,
              35.07334629700006
            ],
            [
              114.97737871900006,
              35.16047592700005
            ],
            [
              114.94853007400002,
              35.23663787800007
            ],
            [
              115.09499241900005,
              35.33264503200007
            ],
            [
              115.16600446500001,
              35.43757892800005
            ],
            [
              115.37460235000003,
              35.545987499000034
            ],
            [
              115.42120400400006,
              35.665067874000044
            ],
            [
              116.1623922330001,
              36.10555564600003
            ],
            [
              116.15573485400012,
              36.19335884700007
            ],
            [
              115.80955113100003,
              36.07507034900004
            ],
            [
              115.47668216700004,
              35.91887239400006
            ],
            [
              115.44783352200011,
              36.07507034900004
            ],
            [
              115.54769421100002,
              36.13961345200005
            ],
            [
              115.54944646400008,
              36.22023203300006
            ],
            [
              115.29597072600006,
              36.28965130300003
            ],
            [
              115.11176589500008,
              36.20226386400003
            ],
            [
              114.88963654000008,
              36.311482891000026
            ],
            [
              114.77044517800005,
              36.24596979800003
            ],
            [
              114.65125381700011,
              36.26781360500007
            ],
            [
              114.56998698100006,
              36.337672730000065
            ],
            [
              114.244919632,
              36.37257882200004
            ],
            [
              114.13656384900003,
              36.45106027800006
            ],
            [
              113.813192447,
              36.46220698500008
            ],
            [
              113.77898976600011,
              36.18914732200005
            ],
            [
              113.70855850800001,
              35.90880487100003
            ],
            [
              113.6652161930001,
              35.69789371400003
            ],
            [
              113.01508149600011,
              35.36280771400004
            ],
            [
              112.74419203900004,
              35.38047868600006
            ],
            [
              112.63583625600006,
              35.30535033700005
            ],
            [
              112.30535111900008,
              35.35397077600004
            ],
            [
              112.19699533500011,
              35.28766292900008
            ],
            [
              112.1428174450001,
              35.19031311500004
            ],
            [
              111.92025466600006,
              35.17986319600004
            ],
            [
              111.54924446600006,
              34.930083858000046
            ],
            [
              111.28225581700008,
              34.91586892400005
            ],
            [
              111.03607147900004,
              34.85329397600003
            ],
            [
              110.84536530100007,
              34.728001232000054
            ],
            [
              110.43970339000003,
              34.71986913400008
            ],
            [
              110.43833766800009,
              34.58505345300006
            ],
            [
              110.54983604800009,
              34.48122056400007
            ],
            [
              110.54948177700004,
              34.35607206100008
            ],
            [
              110.71591625900004,
              34.30516795300008
            ],
            [
              110.72208049900007,
              34.01953498700004
            ],
            [
              110.86385802100006,
              33.937748261000024
            ],
            [
              110.93166466300005,
              33.77906278000006
            ],
            [
              111.11659186500009,
              33.65087605200006
            ],
            [
              111.10426338400003,
              33.393929369000034
            ],
            [
              111.08785002600007,
              33.38212823400005
            ],
            [
              111.22064423800003,
              33.265170141000056
            ],
            [
              111.32716230700004,
              33.067025847000025
            ],
            [
              111.38239389800009,
              32.97771495300003
            ],
            [
              111.49680219400005,
              32.92143577000007
            ],
            [
              111.55203378500005,
              32.86512077300006
            ],
            [
              111.61515560400005,
              32.74242918600004
            ],
            [
              111.80057594600004,
              32.732473801000026
            ],
            [
              111.93470980900008,
              32.62621386500007
            ],
            [
              112.04122787900008,
              32.602952661000074
            ],
            [
              112.26215424300005,
              32.519827623000026
            ],
            [
              112.41601367600003,
              32.47990026300005
            ],
            [
              112.6172144730001,
              32.49986615900008
            ],
            [
              112.7040069740001,
              32.49986615900008
            ],
            [
              112.8341957240001,
              32.469915653000044
            ],
            [
              113.11035368000012,
              32.52648046000007
            ],
            [
              113.33917027300004,
              32.54311039600003
            ],
            [
              113.56798686400009,
              32.409984751000025
            ],
            [
              113.80074857000011,
              32.52980669300007
            ],
            [
              113.89148618400009,
              32.50984744500005
            ],
            [
              113.8875410710001,
              32.17320266100006
            ],
            [
              114.120302777,
              31.885569884000063
            ],
            [
              114.250491527,
              31.898968169000057
            ],
            [
              114.32544868600007,
              31.945846806000077
            ],
            [
              114.4853046930001,
              31.829946178000057
            ],
            [
              114.62417269200012,
              31.857829242000037
            ],
            [
              114.65194629200005,
              31.836381479000067
            ],
            [
              114.68224476500006,
              31.71403407500003
            ],
            [
              114.83626200200001,
              31.615179685000044
            ],
            [
              115.1569208410001,
              31.59152501400007
            ],
            [
              115.23519189600006,
              31.688256117000037
            ],
            [
              115.29578884200009,
              31.68181050700008
            ],
            [
              115.33618680600011,
              31.63882834700007
            ],
            [
              115.37910964200012,
              31.535590096000078
            ],
            [
              115.48626782300005,
              31.518355946000042
            ]
          ]
        ]
      }
    },
    {
      "type": "Feature",
      "properties": {
        "shapeName": "Shaanxi Province",
        "shapeISO": "CHN",
        "shapeID": "43563684B62959128536432",
        "shapeGroup": "CHN",
        "shapeType": "ADM1"
      },
      "geometry": {
        "type": "Polygon",
        "coordinates": [
          [
            [
              109.73082396200004,
              31.972288990000038
            ],
            [
              109.74122661600006,
              32.139803431000075
            ],
            [
              109.77278752600006,
              32.19657484000004
            ],
            [
              109.62681832000004,
              32.409984751000025
            ],
            [
              109.68599502500007,
              32.659433673000024
            ],
            [
              109.89903116200009,
              32.719198223000035
            ],
            [
              110.02527480000003,
              32.75238346000003
            ],
            [
              110.24225605100008,
              32.77892274900006
            ],
            [
              110.25014627700006,
              32.90818840400004
            ],
            [
              110.04105525500006,
              33.030650851000075
            ],
            [
              109.86747025300008,
              33.050493621000044
            ],
            [
              109.86352514000004,
              33.20907473600005
            ],
            [
              109.63865366000005,
              33.22887722300004
            ],
            [
              109.62287320700005,
              33.33111863800008
            ],
            [
              109.72544616100004,
              33.39372350700006
            ],
            [
              109.84774468500007,
              33.39701725200007
            ],
            [
              110.08445150400007,
              33.36407418400006
            ],
            [
              110.41584105300007,
              33.291555523000056
            ],
            [
              110.49868843800004,
              33.28825778700008
            ],
            [
              110.66043809900009,
              33.37334068200005
            ],
            [
              110.88235074200009,
              33.23423962500004
            ],
            [
              111.08785002600007,
              33.38212823400005
            ],
            [
              111.10426338400003,
              33.393929369000034
            ],
            [
              111.11659186500009,
              33.65087605200006
            ],
            [
              110.93166466300005,
              33.77906278000006
            ],
            [
              110.86385802100006,
              33.937748261000024
            ],
            [
              110.72208049900007,
              34.01953498700004
            ],
            [
              110.71591625900004,
              34.30516795300008
            ],
            [
              110.54948177700004,
              34.35607206100008
            ],
            [
              110.54983604800009,
              34.48122056400007
            ],
            [
              110.43833766800009,
              34.58505345300006
            ],
            [
              110.43970339000003,
              34.71986913400008
            ],
            [
              110.41887694000008,
              34.719451615000025
            ],
            [
              110.37033354800008,
              34.816295480000065
            ],
            [
              110.38767047500005,
              35.21953032700003
            ],
            [
              110.68933297400008,
              35.63768155500003
            ],
            [
              110.71013728400004,
              35.76720461900004
            ],
            [
              110.54717018700006,
              36.17410431600007
            ],
            [
              110.56797449700008,
              36.67629582200004
            ],
            [
              110.46048556000005,
              36.76801149400006
            ],
            [
              110.49515941000004,
              37.09783305700006
            ],
            [
              110.73440897900008,
              37.39592957700006
            ],
            [
              110.77948498500007,
              37.59675208400006
            ],
            [
              110.85576745600008,
              37.77237099900003
            ],
            [
              110.54717018700006,
              38.10053432700005
            ],
            [
              110.54370280200004,
              38.23955969200006
            ],
            [
              110.91471300300009,
              38.535802416000024
            ],
            [
              110.93634948500005,
              38.64626894100007
            ],
            [
              111.00736153100007,
              38.81937665100003
            ],
            [
              111.05174405800005,
              39.04723597000003
            ],
            [
              111.23717981200008,
              39.186481065000066
            ],
            [
              111.27180531600004,
              39.502719666000075
            ],
            [
              111.11343750800006,
              39.64571575400004
            ],
            [
              110.75044563600005,
              39.38239811900007
            ],
            [
              110.59224619300005,
              39.457398916000045
            ],
            [
              110.35646400900004,
              39.44668945700005
            ],
            [
              110.28364892300004,
              39.51627148600005
            ],
            [
              110.20736645200009,
              39.41455119900007
            ],
            [
              109.91957349100005,
              39.186481065000066
            ],
            [
              109.85022579200006,
              38.94418579400008
            ],
            [
              109.91610610800006,
              38.860536065000076
            ],
            [
              109.90917133800008,
              38.79570731800004
            ],
            [
              109.77394332100005,
              38.71999918600005
            ],
            [
              109.56243283200007,
              38.70376556800005
            ],
            [
              109.49308513200003,
              38.57376395700004
            ],
            [
              109.38559619500006,
              38.511387984000066
            ],
            [
              109.29544418300009,
              38.40821354800005
            ],
            [
              109.17061832100006,
              38.27767711600006
            ],
            [
              109.00418383900006,
              38.18234607000005
            ],
            [
              108.85161889800008,
              37.96671130300007
            ],
            [
              108.76146688600005,
              37.79977388000003
            ],
            [
              108.68865179900007,
              37.75044137800006
            ],
            [
              108.40432622400004,
              37.761407001000066
            ],
            [
              108.30723944400006,
              37.912019421000025
            ],
            [
              108.19281573600006,
              37.925696207000044
            ],
            [
              108.09919634100004,
              37.86002444500008
            ],
            [
              107.58255596900005,
              37.82168886900007
            ],
            [
              107.58140655100004,
              37.825796156000024
            ],
            [
              107.38599376200006,
              37.67128235500007
            ],
            [
              107.31103660300005,
              37.45550514700005
            ],
            [
              107.38204864900007,
              37.31444443400005
            ],
            [
              107.34676546600008,
              37.21850670500004
            ],
            [
              107.33470728600008,
              37.18569155500006
            ],
            [
              107.42544489800008,
              37.00002723700004
            ],
            [
              107.68582240100005,
              36.914910580000026
            ],
            [
              107.94225478800007,
              36.84864298600007
            ],
            [
              108.20657740400009,
              36.66215508000005
            ],
            [
              108.32887592600008,
              36.703284567000026
            ],
            [
              108.54980229000006,
              36.56081960300003
            ],
            [
              108.65237524600008,
              36.532295014000056
            ],
            [
              108.78256399700007,
              36.42761483900006
            ],
            [
              108.76678354400008,
              36.08084951600006
            ],
            [
              108.61292411000005,
              35.99152396900007
            ],
            [
              108.57741808700007,
              35.751760509000064
            ],
            [
              108.68788127000005,
              35.636416575000055
            ],
            [
              108.64843013300003,
              35.43737803500005
            ],
            [
              108.53796695100004,
              35.379500208000024
            ],
            [
              108.24208342700007,
              35.40201319100004
            ],
            [
              108.04088263100004,
              35.340891906000024
            ],
            [
              107.88307808400003,
              35.41809004500004
            ],
            [
              107.82390137900006,
              35.389149399000075
            ],
            [
              107.82784649300004,
              35.22173348900003
            ],
            [
              107.87913297000006,
              35.12176315000005
            ],
            [
              107.28342080800007,
              35.03136177300007
            ],
            [
              107.07827489800007,
              35.17337609200007
            ],
            [
              106.86523876000007,
              35.20239398500007
            ],
            [
              106.57724546300005,
              35.137895711000056
            ],
            [
              106.55357478200006,
              35.034592118000035
            ],
            [
              106.60486125800008,
              34.97642637700005
            ],
            [
              106.57330035000007,
              34.81787695200006
            ],
            [
              106.43916648400005,
              34.72389752600003
            ],
            [
              106.42733114500004,
              34.636303292000036
            ],
            [
              106.62064171300005,
              34.57785568200006
            ],
            [
              106.76661091800008,
              34.490107167000076
            ],
            [
              106.74294023700008,
              34.40552124300007
            ],
            [
              106.62458682600004,
              34.24587668800007
            ],
            [
              106.50623341700003,
              34.06959048400006
            ],
            [
              106.55357478200006,
              33.96167901800004
            ],
            [
              106.54568455300006,
              33.69622474800008
            ],
            [
              106.13933784700004,
              33.702789092000046
            ],
            [
              106.00914909700003,
              33.656828148000045
            ],
            [
              105.89079568600005,
              33.58455418900007
            ],
            [
              105.88685057300006,
              33.52208701100005
            ],
            [
              106.01309421000008,
              33.45299181400003
            ],
            [
              106.07227091400006,
              33.28495992500007
            ],
            [
              105.99731375500005,
              33.18596616900004
            ],
            [
              105.82575884100004,
              32.994325169000035
            ],
            [
              105.81978364100007,
              32.98764285400006
            ],
            [
              106.12750250600004,
              32.97109573300003
            ],
            [
              106.17484387000007,
              32.86512077300006
            ],
            [
              106.18667921000008,
              32.75570130400007
            ],
            [
              106.32870330200006,
              32.71255969400005
            ],
            [
              106.62458682600004,
              32.759019024000054
            ],
            [
              106.88496432800008,
              32.83197758600005
            ],
            [
              107.11772603500003,
              32.822032216000025
            ],
            [
              107.22818921700008,
              32.58300967500003
            ],
            [
              107.42149978500004,
              32.576361028000065
            ],
            [
              107.46884115000006,
              32.61292248800004
            ],
            [
              107.59902990000006,
              32.50984744500005
            ],
            [
              107.76077956000006,
              32.48655605400006
            ],
            [
              108.07638865400008,
              32.27332686900007
            ],
            [
              108.40383308500009,
              32.37667259400007
            ],
            [
              108.59319854200004,
              32.37334070300005
            ],
            [
              108.69871478700009,
              32.29969266300003
            ],
            [
              108.95614899900005,
              32.11975801800003
            ],
            [
              109.23230695400008,
              32.07296826600003
            ],
            [
              109.28359343200009,
              31.90566657900007
            ],
            [
              109.72939127600006,
              31.94919436500004
            ],
            [
              109.73082396200004,
              31.972288990000038
            ]
          ]
        ]
      }
    },
    {
      "type": "Feature",
      "properties": {
        "shapeName": "Hubei Province",
        "shapeISO": "CHN",
        "shapeID": "43563684B41908353419915",
        "shapeGroup": "CHN",
        "shapeType": "ADM1"
      },
      "geometry": {
        "type": "Polygon",
        "coordinates": [
          [
            [
              116.2457002110001,
              29.88968471800007
            ],
            [
              116.22494201100005,
              30.058687504000034
            ],
            [
              116.22494201100005,
              30.150427941000032
            ],
            [
              116.17444455500004,
              30.26607395800005
            ],
            [
              116.13625585600005,
              30.365927232000047
            ],
            [
              116.01001221900003,
              30.46459050800007
            ],
            [
              116.03368290000003,
              30.603909575000046
            ],
            [
              115.89560392300007,
              30.83453396400006
            ],
            [
              116.124420514,
              31.054467018000025
            ],
            [
              116.1086400590001,
              31.15580364500005
            ],
            [
              115.93505505900009,
              31.270520960000056
            ],
            [
              115.67073244300002,
              31.307605571000067
            ],
            [
              115.48626782300005,
              31.518355946000042
            ],
            [
              115.37910964200012,
              31.535590096000078
            ],
            [
              115.33618680600011,
              31.63882834700007
            ],
            [
              115.29578884200009,
              31.68181050700008
            ],
            [
              115.23519189600006,
              31.688256117000037
            ],
            [
              115.1569208410001,
              31.59152501400007
            ],
            [
              114.83626200200001,
              31.615179685000044
            ],
            [
              114.68224476500006,
              31.71403407500003
            ],
            [
              114.65194629200005,
              31.836381479000067
            ],
            [
              114.62417269200012,
              31.857829242000037
            ],
            [
              114.4853046930001,
              31.829946178000057
            ],
            [
              114.32544868600007,
              31.945846806000077
            ],
            [
              114.250491527,
              31.898968169000057
            ],
            [
              114.120302777,
              31.885569884000063
            ],
            [
              113.8875410710001,
              32.17320266100006
            ],
            [
              113.89148618400009,
              32.50984744500005
            ],
            [
              113.80074857000011,
              32.52980669300007
            ],
            [
              113.56798686400009,
              32.409984751000025
            ],
            [
              113.33917027300004,
              32.54311039600003
            ],
            [
              113.11035368000012,
              32.52648046000007
            ],
            [
              112.8341957240001,
              32.469915653000044
            ],
            [
              112.7040069740001,
              32.49986615900008
            ],
            [
              112.6172144730001,
              32.49986615900008
            ],
            [
              112.41601367600003,
              32.47990026300005
            ],
            [
              112.26215424300005,
              32.519827623000026
            ],
            [
              112.04122787900008,
              32.602952661000074
            ],
            [
              111.93470980900008,
              32.62621386500007
            ],
            [
              111.80057594600004,
              32.732473801000026
            ],
            [
              111.61515560400005,
              32.74242918600004
            ],
            [
              111.55203378500005,
              32.86512077300006
            ],
            [
              111.49680219400005,
              32.92143577000007
            ],
            [
              111.38239389800009,
              32.97771495300003
            ],
            [
              111.32716230700004,
              33.067025847000025
            ],
            [
              111.22064423800003,
              33.265170141000056
            ],
            [
              111.08785002600007,
              33.38212823400005
            ],
            [
              110.88235074200009,
              33.23423962500004
            ],
            [
              110.66043809900009,
              33.37334068200005
            ],
            [
              110.49868843800004,
              33.28825778700008
            ],
            [
              110.41584105300007,
              33.291555523000056
            ],
            [
              110.08445150400007,
              33.36407418400006
            ],
            [
              109.84774468500007,
              33.39701725200007
            ],
            [
              109.72544616100004,
              33.39372350700006
            ],
            [
              109.62287320700005,
              33.33111863800008
            ],
            [
              109.63865366000005,
              33.22887722300004
            ],
            [
              109.86352514000004,
              33.20907473600005
            ],
            [
              109.86747025300008,
              33.050493621000044
            ],
            [
              110.04105525500006,
              33.030650851000075
            ],
            [
              110.25014627700006,
              32.90818840400004
            ],
            [
              110.24225605100008,
              32.77892274900006
            ],
            [
              110.02527480000003,
              32.75238346000003
            ],
            [
              109.89903116200009,
              32.719198223000035
            ],
            [
              109.68599502500007,
              32.659433673000024
            ],
            [
              109.62681832000004,
              32.409984751000025
            ],
            [
              109.77278752600006,
              32.19657484000004
            ],
            [
              109.74122661600006,
              32.139803431000075
            ],
            [
              109.73082396200004,
              31.972288990000038
            ],
            [
              110.02132968600006,
              31.91999954000005
            ],
            [
              110.02637943100007,
              31.711886186000072
            ],
            [
              110.19049615900008,
              31.597976884000047
            ],
            [
              110.24099361400005,
              31.51406773700006
            ],
            [
              110.25866772300009,
              31.41931047500003
            ],
            [
              110.25614285200004,
              31.350335905000065
            ],
            [
              110.22331950600005,
              31.30072916200004
            ],
            [
              110.20059565000008,
              31.24677915500007
            ],
            [
              110.21322001400006,
              31.164716089000024
            ],
            [
              110.20564539700007,
              31.030671031000054
            ],
            [
              110.15009819500006,
              30.96790765700007
            ],
            [
              110.13494895900004,
              30.95924739900005
            ],
            [
              109.98345659600005,
              30.987390365000067
            ],
            [
              109.90771041300007,
              30.987390365000067
            ],
            [
              109.78399164800004,
              30.90077012000006
            ],
            [
              109.69562110200008,
              30.818408223000063
            ],
            [
              109.62239979300006,
              30.76635375400008
            ],
            [
              109.54917848400004,
              30.72078298400004
            ],
            [
              109.42798459200009,
              30.707758806000072
            ],
            [
              109.27144248200005,
              30.694732870000053
            ],
            [
              109.18054706400005,
              30.72078298400004
            ],
            [
              109.10227600900004,
              30.72078298400004
            ],
            [
              109.05430342700004,
              30.707758806000072
            ],
            [
              108.98108211700008,
              30.668675720000067
            ],
            [
              108.89018669900008,
              30.644783827000026
            ],
            [
              108.80434102400005,
              30.638266830000077
            ],
            [
              108.69829637100008,
              30.67084741800005
            ],
            [
              108.65537353300004,
              30.61871320800003
            ],
            [
              108.62002531600007,
              30.586115060000054
            ],
            [
              108.56447811400005,
              30.55350594500004
            ],
            [
              108.53165476900006,
              30.540459231000057
            ],
            [
              108.64274917000006,
              30.38158392300005
            ],
            [
              108.62759993400005,
              30.287878714000044
            ],
            [
              108.60487607800007,
              30.167892650000056
            ],
            [
              108.56459646700006,
              29.90532418400005
            ],
            [
              108.70020975000006,
              29.95874458800006
            ],
            [
              108.82958975300005,
              29.800485724000055
            ],
            [
              108.90028619000009,
              29.750080342000047
            ],
            [
              108.99875622500008,
              29.74788822900007
            ],
            [
              109.00380597200007,
              29.625053423000054
            ],
            [
              108.99875622500008,
              29.550401974000067
            ],
            [
              109.00885571600008,
              29.508660946000077
            ],
            [
              109.14945956800005,
              29.31882480200005
            ],
            [
              109.25992275100003,
              29.25689002000007
            ],
            [
              109.32884620600004,
              29.24048923600003
            ],
            [
              109.36738764600005,
              29.352529056000037
            ],
            [
              109.41283535600007,
              29.429525478000073
            ],
            [
              109.48605666500004,
              29.535025705000066
            ],
            [
              109.50120590100005,
              29.592125768000074
            ],
            [
              109.53402924700003,
              29.67332785600007
            ],
            [
              109.67542212000006,
              29.74569606800003
            ],
            [
              109.82186473900003,
              29.796103655000024
            ],
            [
              109.92790939400004,
              29.853055581000035
            ],
            [
              110.01627994000006,
              29.881519369000046
            ],
            [
              110.07940175900006,
              29.89027582400007
            ],
            [
              110.13999870400005,
              29.881519369000046
            ],
            [
              110.18039666800007,
              29.861814534000075
            ],
            [
              110.20817026800006,
              29.84210580900003
            ],
            [
              110.23846874100008,
              29.80486760200006
            ],
            [
              110.28139157800007,
              29.780764901000055
            ],
            [
              110.33693877900004,
              29.767615526000043
            ],
            [
              110.55660270600004,
              29.774190430000033
            ],
            [
              110.70334831100007,
              29.83220618100006
            ],
            [
              110.74213035500009,
              29.86584339500007
            ],
            [
              110.74697811200008,
              29.912076054000067
            ],
            [
              110.73081892600004,
              29.970886591000067
            ],
            [
              110.68557320700006,
              30.01427205500005
            ],
            [
              110.60639319800003,
              30.082810382000048
            ],
            [
              110.59184993000008,
              30.126146858000027
            ],
            [
              110.60154544100004,
              30.158287441000027
            ],
            [
              110.67264585900006,
              30.172258343000067
            ],
            [
              110.76798505300007,
              30.176449226000045
            ],
            [
              110.81969444700007,
              30.19600433000005
            ],
            [
              110.90533813000008,
              30.23649897300004
            ],
            [
              111.12348713600005,
              30.214159162000044
            ],
            [
              111.19458755100004,
              30.189020810000045
            ],
            [
              111.28346307200007,
              30.17924305100007
            ],
            [
              111.34002022100009,
              30.169464321000078
            ],
            [
              111.41112063800006,
              30.135929883000074
            ],
            [
              111.44343900900009,
              30.11496507100003
            ],
            [
              111.46767778700007,
              30.088403253000024
            ],
            [
              111.50807575100004,
              30.059037153000077
            ],
            [
              111.94922151700007,
              30.008674996000025
            ],
            [
              112.0720313270001,
              29.94288591000003
            ],
            [
              112.12050888300007,
              29.900870105000024
            ],
            [
              112.25139828500005,
              29.794350774000065
            ],
            [
              112.33381013200005,
              29.736839246000045
            ],
            [
              112.40006279400006,
              29.693333014000075
            ],
            [
              112.45338810600003,
              29.698947779000036
            ],
            [
              112.50186566100001,
              29.71298332400005
            ],
            [
              112.53903178900009,
              29.746660623000025
            ],
            [
              112.5697342420001,
              29.75086949200005
            ],
            [
              112.67961670200009,
              29.75507818400007
            ],
            [
              112.80081059300005,
              29.812579240000048
            ],
            [
              112.90422938100005,
              29.86584339500007
            ],
            [
              113.02703919200007,
              29.85743515400003
            ],
            [
              113.0625893990001,
              29.80977507700004
            ],
            [
              113.04804613300007,
              29.73543611300005
            ],
            [
              113.0464302150001,
              29.696140436000064
            ],
            [
              113.056125726,
              29.639977084000066
            ],
            [
              113.0674371560001,
              29.610478775000047
            ],
            [
              113.13045798000007,
              29.587998077000066
            ],
            [
              113.19024696500003,
              29.596428926000044
            ],
            [
              113.25488370700009,
              29.60766896100006
            ],
            [
              113.31628861200011,
              29.649807934000023
            ],
            [
              113.33891147300005,
              29.720000361000075
            ],
            [
              113.46656903900009,
              29.81398129200005
            ],
            [
              113.53443761800008,
              29.844821463000073
            ],
            [
              113.55059680400007,
              29.860237979000033
            ],
            [
              113.5958425230001,
              29.89526665900007
            ],
            [
              113.64351341300005,
              29.935331095000038
            ],
            [
              113.69911135300003,
              29.936478246000036
            ],
            [
              113.70242075400006,
              29.874513231000037
            ],
            [
              113.71301083800006,
              29.83834918100007
            ],
            [
              113.724262801,
              29.812509698000042
            ],
            [
              113.73948604800012,
              29.783791327000074
            ],
            [
              113.77787510200005,
              29.745870461000038
            ],
            [
              113.81368854300001,
              29.686489592000044
            ],
            [
              113.803589052,
              29.616273767000052
            ],
            [
              113.75561647000006,
              29.54381243100005
            ],
            [
              113.72784287000002,
              29.473497252000072
            ],
            [
              113.7404672340001,
              29.381134530000054
            ],
            [
              113.79298458700009,
              29.323475276000067
            ],
            [
              113.8026800990001,
              29.255827168000053
            ],
            [
              113.82207112000003,
              29.20506170300007
            ],
            [
              113.84630989900006,
              29.200830111000073
            ],
            [
              113.87539643200012,
              29.231857723000076
            ],
            [
              113.89640337300011,
              29.226217039000062
            ],
            [
              113.957808279,
              29.213524360000065
            ],
            [
              113.97719930200003,
              29.200830111000073
            ],
            [
              114.0489992570001,
              29.19659834600003
            ],
            [
              114.06617581700004,
              29.260056488000032
            ],
            [
              114.28583974500009,
              29.341524811000056
            ],
            [
              114.419658,
              29.44711647500003
            ],
            [
              114.62417269200012,
              29.438321358000053
            ],
            [
              114.93725691300006,
              29.491080625000052
            ],
            [
              114.98775436800008,
              29.565775904000077
            ],
            [
              115.08622440300007,
              29.642610441000045
            ],
            [
              115.13924673200006,
              29.646999218000076
            ],
            [
              115.18974418700009,
              29.640415981000046
            ],
            [
              115.21751778700002,
              29.649193533000073
            ],
            [
              115.21751778700002,
              29.734734540000034
            ],
            [
              115.26044062400001,
              29.752272408000067
            ],
            [
              115.37153502400008,
              29.74788822900007
            ],
            [
              115.49525378800001,
              29.776381967000077
            ],
            [
              115.53843517100006,
              29.834617225000045
            ],
            [
              115.68115309900008,
              29.862424128000043
            ],
            [
              115.8083582060001,
              29.78885353700008
            ],
            [
              115.94176844300011,
              29.722414107000077
            ],
            [
              116.05346073400005,
              29.769105876000026
            ],
            [
              116.10930687900009,
              29.83641145100006
            ],
            [
              116.21996498100009,
              29.87766978800005
            ],
            [
              116.2457002110001,
              29.88968471800007
            ]
          ]
        ]
      }
    }
  ]
}