{
  "type": "FeatureCollection",
  "features": [
    {
      "type": "Feature",
      "properties": {
        "shapeName": "Fujian Province",
        "shapeISO": "CHN",
        "shapeID": "43563684B30737817496648",
        "shapeGroup": "CHN",
        "shapeType": "ADM1"
      },
      "geometry": {
        "type": "MultiPolygon",
        "coordinates": [
          [
            [
              [
                118.48217824100004,
                24.455170363000036
              ],
              [
                118.44099125500009,
                24.49394913200007
              ],
              [
                118.40442258700011,
                24.491339091000043
              ],
              [
                118.33021246300007,
                24.452584689000048
              ],
              [
                118.3131695720001,
                24.398273244000052
              ],
              [
                118.445251976,
                24.391806040000063
              ],
              [
                118.48217824100004,
                24.455170363000036
              ]
            ]
          ],
          [
            [
              [
                119.90241915700005,
                25.527440884000043
              ],
              [
                119.84845000300004,
                25.628644174000044
              ],
              [
                119.744404271,
                25.62422953500004
              ],
              [
                119.71494735700003,
                25.524877665000076
              ],
              [
                119.76465578900002,
                25.42486947200007
              ],
              [
                119.90241915700005,
                25.527440884000043
              ]
            ]
          ],
          [
            [
              [
                120.11426147400005,
                26.65611017300006
              ],
              [
                120.12021839700003,
                26.721307989000024
              ],
              [
                120.09080609400007,
                26.77084666500008
              ],
              [
                120.06456927500005,
                26.788971419000063
              ],
              [
                119.9753907270001,
                26.67740335600007
              ],
              [
                119.95975380700008,
                26.60385850800003
              ],
              [
                120.04240610200009,
                26.575892398000065
              ],
              [
                120.11426147400005,
                26.65611017300006
              ]
            ]
          ],
          [
            [
              [
                120.54140008200011,
                27.28741374300006
              ],
              [
                120.41178698500005,
                27.39397407900003
              ],
              [
                120.2388836990001,
                27.43700716400008
              ],
              [
                120.01103918400008,
                27.363840949000064
              ],
              [
                119.89792488400008,
                27.356665184000065
              ],
              [
                119.694319145,
                27.68626773300008
              ],
              [
                119.61079635600004,
                27.69994989500003
              ],
              [
                119.50727657400012,
                27.559022164000055
              ],
              [
                119.2977121350001,
                27.491850020000072
              ],
              [
                119.04774973400004,
                27.55230679700003
              ],
              [
                118.93918020800004,
                27.96119015800008
              ],
              [
                118.84575991500003,
                28.101596975000064
              ],
              [
                118.89625737000006,
                28.252941258000078
              ],
              [
                118.82051118900006,
                28.35519961400007
              ],
              [
                118.59094838800002,
                28.390088225000056
              ],
              [
                118.48902301400005,
                28.300383434000025
              ],
              [
                118.45203757200011,
                28.153741377000074
              ],
              [
                117.87620878300004,
                27.972340247000034
              ],
              [
                117.85348492900005,
                27.90095978900007
              ],
              [
                117.72471641800007,
                27.916578293000043
              ],
              [
                117.65906972800008,
                28.005783594000036
              ],
              [
                117.55554994400006,
                28.008012782000037
              ],
              [
                117.39648296200005,
                27.938886529000058
              ],
              [
                117.36365961600006,
                27.845161016000077
              ],
              [
                117.2626647080001,
                27.724537703000067
              ],
              [
                117.19196827000007,
                27.543352335000066
              ],
              [
                117.23741597900005,
                27.337198581000052
              ],
              [
                117.03290128800006,
                27.108187816000054
              ],
              [
                116.65922012200008,
                27.000255409000033
              ],
              [
                116.6036729220001,
                26.702907459000073
              ],
              [
                116.68194397700006,
                26.54038925800006
              ],
              [
                116.6364962670001,
                26.47260523600005
              ],
              [
                116.47742928500008,
                26.35501831700003
              ],
              [
                116.5077277580001,
                26.182945336000046
              ],
              [
                116.36901756200007,
                26.010617884000055
              ],
              [
                116.25066415100002,
                25.964517027000056
              ],
              [
                116.22699347000002,
                25.804797748000055
              ],
              [
                116.124420514,
                25.71597160500005
              ],
              [
                116.02973778700004,
                25.29581901800003
              ],
              [
                115.91532949100008,
                25.25657752500007
              ],
              [
                115.90743926300001,
                25.14234839200003
              ],
              [
                115.96841599700008,
                24.97318308900003
              ],
              [
                116.12378550900007,
                24.960378485000035
              ],
              [
                116.20341797600008,
                24.921931108000024
              ],
              [
                116.33889658700002,
                24.934123038000052
              ],
              [
                116.4505888760001,
                24.85626153900006
              ],
              [
                116.55297347700002,
                24.684417879000023
              ],
              [
                116.72361447700007,
                24.741725517000077
              ],
              [
                116.78773412500004,
                24.724817811000037
              ],
              [
                116.8131363650001,
                24.570546555000078
              ],
              [
                117.03290128800006,
                24.29101290400007
              ],
              [
                116.98492870500002,
                24.073212074000025
              ],
              [
                117.10864747000005,
                23.835549805000028
              ],
              [
                117.10864747000005,
                23.754691292000075
              ],
              [
                117.176588766,
                23.711874153000053
              ],
              [
                117.2148537160001,
                23.66831035900003
              ],
              [
                117.22161590400003,
                23.642915019000043
              ],
              [
                117.34074836900004,
                23.61636651200007
              ],
              [
                117.40732216200001,
                23.764711093000074
              ],
              [
                117.53381236900009,
                23.748462379000046
              ],
              [
                117.524935862,
                23.94331280800003
              ],
              [
                117.68027471300002,
                23.892598729000042
              ],
              [
                117.72021898900005,
                24.056839996000065
              ],
              [
                117.86002395500009,
                24.056839996000065
              ],
              [
                118.09081310200008,
                24.251224411000067
              ],
              [
                117.957665517,
                24.489748676000033
              ],
              [
                118.13741475800009,
                24.47965085100003
              ],
              [
                118.26210192600001,
                24.57075433800003
              ],
              [
                118.4597428730001,
                24.636958397000058
              ],
              [
                118.65044905000002,
                24.60228445000007
              ],
              [
                118.77180752700008,
                24.76926125500006
              ],
              [
                118.69205767000005,
                24.81333094300004
              ],
              [
                118.66085120600007,
                24.932869637000067
              ],
              [
                118.93130723900003,
                24.904568294000057
              ],
              [
                118.97985063100009,
                24.961164482000072
              ],
              [
                118.94170939500009,
                25.089980857000057
              ],
              [
                119.16362203800009,
                25.231208733000074
              ],
              [
                119.26764358900004,
                25.246890617000076
              ],
              [
                119.21591020300002,
                25.357108425000035
              ],
              [
                119.25585448000004,
                25.49339367400006
              ],
              [
                119.35127691700006,
                25.55146839300005
              ],
              [
                119.59538082300003,
                25.415248919000078
              ],
              [
                119.61979121500008,
                25.489387485000066
              ],
              [
                119.59538082300003,
                25.579494401000034
              ],
              [
                119.5509982960001,
                25.66353303900007
              ],
              [
                119.68192675500006,
                25.791478064000046
              ],
              [
                119.67083112400007,
                25.837424646000045
              ],
              [
                119.62422946800007,
                25.907309128000065
              ],
              [
                119.6641737440001,
                26.050941291000072
              ],
              [
                119.63532510100003,
                26.126676324000073
              ],
              [
                119.67970762900006,
                26.246158010000045
              ],
              [
                119.83726560600007,
                26.40130067000007
              ],
              [
                119.68192675500006,
                26.623705174000065
              ],
              [
                119.69746064000003,
                26.752581306000025
              ],
              [
                119.87499075500011,
                26.736727495000025
              ],
              [
                119.90383939700007,
                26.651475420000054
              ],
              [
                119.97911216700004,
                26.850271183000075
              ],
              [
                120.25889962800011,
                26.973115456000073
              ],
              [
                120.26971787000002,
                27.09833477500007
              ],
              [
                120.40494588600006,
                27.18473057500006
              ],
              [
                120.33462687300005,
                27.253103090000025
              ],
              [
                120.46824313800005,
                27.228858849000062
              ],
              [
                120.54140008200011,
                27.28741374300006
              ]
            ]
          ]
        ]
      }
    },
    {
      "type": "Feature",
      "properties": {
        "shapeName": "Jiangxi Province",
        "shapeISO": "CHN",
        "shapeID": "43563684B87813050901813",
        "shapeGroup": "CHN",
        "shapeType": "ADM1"
      },
      "geometry": {
        "type": "Polygon",
        "coordinates": [
          [
            [
              118.59094838800002,
              28.390088225000056
            ],
            [
              118.59997933500006,
              28.398032730000068
            ],
            [
              118.56299389500009,
              28.733690978000027
            ],
            [
              118.38423093200004,
              28.92270143500008
            ],
            [
              118.16848252900002,
              29.186738011000045
            ],
            [
              118.16848252900002,
              29.288937358000055
            ],
            [
              118.26711036900008,
              29.433992232000037
            ],
            [
              118.29055000100004,
              29.512701785000047
            ],
            [
              118.20349541300004,
              29.60735614600003
            ],
            [
              118.08908711700008,
              29.641650371000026
            ],
            [
              117.70246597700009,
              29.682788027000072
            ],
            [
              117.61961859100006,
              29.730760690000068
            ],
            [
              117.49732006700003,
              29.898484301000053
            ],
            [
              117.42236290900007,
              29.91558312500007
            ],
            [
              117.3552959760001,
              29.973697161000075
            ],
            [
              117.26455836200012,
              29.977114576000076
            ],
            [
              117.20932677100006,
              29.93267901400003
            ],
            [
              117.18565608900008,
              29.823214628000073
            ],
            [
              116.96867483800008,
              29.63479245900004
            ],
            [
              116.85032142700004,
              29.655364793000047
            ],
            [
              116.81481540400011,
              29.754738425000028
            ],
            [
              116.92133347300012,
              29.83348201700005
            ],
            [
              116.97656506400006,
              30.001033190000044
            ],
            [
              116.81876051800009,
              30.147835258000043
            ],
            [
              116.72802290300001,
              30.13760032400006
            ],
            [
              116.65701085700005,
              30.014698381000073
            ],
            [
              116.24671903800004,
              29.88138254300003
            ],
            [
              116.2457002110001,
              29.88968471800007
            ],
            [
              116.21996498100009,
              29.87766978800005
            ],
            [
              116.10930687900009,
              29.83641145100006
            ],
            [
              116.05346073400005,
              29.769105876000026
            ],
            [
              115.94176844300011,
              29.722414107000077
            ],
            [
              115.8083582060001,
              29.78885353700008
            ],
            [
              115.68115309900008,
              29.862424128000043
            ],
            [
              115.53843517100006,
              29.834617225000045
            ],
            [
              115.49525378800001,
              29.776381967000077
            ],
            [
              115.37153502400008,
              29.74788822900007
            ],
            [
              115.26044062400001,
              29.752272408000067
            ],
            [
              115.21751778700002,
              29.734734540000034
            ],
            [
              115.21751778700002,
              29.649193533000073
            ],
            [
              115.18974418700009,
              29.640415981000046
            ],
            [
              115.13924673200006,
              29.646999218000076
            ],
            [
              115.08622440300007,
              29.642610441000045
            ],
            [
              114.98775436800008,
              29.565775904000077
            ],
            [
              114.93725691300006,
              29.491080625000052
            ],
            [
              114.62417269200012,
              29.438321358000053
            ],
            [
              114.419658,
              29.44711647500003
            ],
            [
              114.28583974500009,
              29.341524811000056
            ],
            [
              114.06617581700004,
              29.260056488000032
            ],
            [
              114.0489992570001,
              29.19659834600003
            ],
            [
              114.04022012500002,
              29.164149004000024
            ],
            [
              114.23897810800008,
              28.865983726000024
            ],
            [
              114.2347110720001,
              28.683951328000035
            ],
            [
              114.31361334500002,
              28.55581715200003
            ],
            [
              114.3175584600001,
              28.458746934000033
            ],
            [
              114.21893061800006,
              28.365059011000028
            ],
            [
              114.17158925500007,
              28.309501166000075
            ],
            [
              114.09663209400003,
              28.180912508000063
            ],
            [
              114.02167493400009,
              28.125258631000065
            ],
            [
              113.95066288900011,
              28.114820309000038
            ],
            [
              113.844144819,
              28.069575841000074
            ],
            [
              113.83230948000005,
              28.003415032000078
            ],
            [
              113.80074857000011,
              27.930242633000034
            ],
            [
              113.72184629800006,
              27.857020660000046
            ],
            [
              113.690285388,
              27.759314394000057
            ],
            [
              113.67845004600008,
              27.616086197000072
            ],
            [
              113.713956069,
              27.469170164000047
            ],
            [
              113.75735232000011,
              27.423656375000064
            ],
            [
              113.863870388,
              27.49716931000006
            ],
            [
              113.93882754900005,
              27.430659718000072
            ],
            [
              113.94277266200004,
              27.364110030000063
            ],
            [
              113.8591362520001,
              27.260913997000046
            ],
            [
              113.87176061600007,
              27.198052070000074
            ],
            [
              113.99800425300009,
              27.056483162000063
            ],
            [
              113.91720832500005,
              26.939497842000037
            ],
            [
              113.91973319800002,
              26.85618427600008
            ],
            [
              113.99042963500005,
              26.76604650200005
            ],
            [
              114.16212098100004,
              26.67583714500006
            ],
            [
              114.14949661700007,
              26.53361265700005
            ],
            [
              114.07122556200011,
              26.45000168000007
            ],
            [
              114.02956516100005,
              26.290379363000056
            ],
            [
              114.10057720900011,
              26.262079637000056
            ],
            [
              114.17947948100004,
              26.297453216000065
            ],
            [
              114.2544366410001,
              26.308063186000027
            ],
            [
              114.2544366410001,
              26.247927187000073
            ],
            [
              114.11635766200004,
              26.13818729600007
            ],
            [
              114.11635766200004,
              25.978703832000065
            ],
            [
              113.97827868500008,
              25.77993312800004
            ],
            [
              114.04534561600008,
              25.666199964000043
            ],
            [
              114.03351027600002,
              25.559476494000023
            ],
            [
              114.04385854500003,
              25.54367680300004
            ],
            [
              114.13608323200003,
              25.402776689000063
            ],
            [
              114.36489982300009,
              25.374263894000023
            ],
            [
              114.51875925600007,
              25.427719859000035
            ],
            [
              114.67656380100004,
              25.44909561000003
            ],
            [
              114.75546607600006,
              25.29581901800003
            ],
            [
              114.73574050800005,
              25.156632890000026
            ],
            [
              114.49508857300009,
              25.092339483000046
            ],
            [
              114.45958255000005,
              24.945767303000025
            ],
            [
              114.27021709500002,
              24.759619799000063
            ],
            [
              114.48325323300003,
              24.58754335900005
            ],
            [
              115.14208721400007,
              24.723790129000065
            ],
            [
              115.47347676000004,
              24.841988817000072
            ],
            [
              115.70229335300007,
              24.644928544000038
            ],
            [
              115.81275653600005,
              24.641342741000074
            ],
            [
              115.85615278500006,
              24.730956888000037
            ],
            [
              115.8245918770001,
              24.895678235000048
            ],
            [
              115.97056108200002,
              24.967227816000047
            ],
            [
              115.96841599700008,
              24.97318308900003
            ],
            [
              115.90743926300001,
              25.14234839200003
            ],
            [
              115.91532949100008,
              25.25657752500007
            ],
            [
              116.02973778700004,
              25.29581901800003
            ],
            [
              116.124420514,
              25.71597160500005
            ],
            [
              116.22699347000002,
              25.804797748000055
            ],
            [
              116.25066415100002,
              25.964517027000056
            ],
            [
              116.36901756200007,
              26.010617884000055
            ],
            [
              116.5077277580001,
              26.182945336000046
            ],
            [
              116.47742928500008,
              26.35501831700003
            ],
            [
              116.6364962670001,
              26.47260523600005
            ],
            [
              116.68194397700006,
              26.54038925800006
            ],
            [
              116.6036729220001,
              26.702907459000073
            ],
            [
              116.65922012200008,
              27.000255409000033
            ],
            [
              117.03290128800006,
              27.108187816000054
            ],
            [
              117.23741597900005,
              27.337198581000052
            ],
            [
              117.19196827000007,
              27.543352335000066
            ],
            [
              117.2626647080001,
              27.724537703000067
            ],
            [
              117.36365961600006,
              27.845161016000077
            ],
            [
              117.39648296200005,
              27.938886529000058
            ],
            [
              117.55554994400006,
              28.008012782000037
            ],
            [
              117.65906972800008,
              28.005783594000036
            ],
            [
              117.72471641800007,
              27.916578293000043
            ],
            [
              117.85348492900005,
              27.90095978900007
            ],
            [
              117.87620878300004,
              27.972340247000034
            ],
            [
              118.45203757200011,
              28.153741377000074
            ],
            [
              118.48902301400005,
              28.300383434000025
            ],
            [
              118.59094838800002,
              28.390088225000056
            ]
          ]
        ]
      }
    },
    {
      "type": "Feature",
      "properties": {
        "shapeName": "Zhejiang Province",
        "shapeISO": "CHN",
        "shapeID": "43563684B73528730180553",
        "shapeGroup": "CHN",
        "shapeType": "ADM1"
      },
      "geometry": {
        "type": "Polygon",
        "coordinates": [
          [
            [
              120.54140008200011,
              27.28741374300006
            ],
            [
              120.64419545400006,
              27.369639119000055
            ],
            [
              120.6892714600001,
              27.655637365000075
            ],
            [
              120.87304286800008,
              27.95007867000004
            ],
            [
              121.02560781000011,
              28.048048120000033
            ],
            [
              121.10535766600003,
              28.301740288000076
            ],
            [
              121.29606384400006,
              28.33531693300006
            ],
            [
              121.2475204540001,
              28.069467058000043
            ],
            [
              121.61506326900007,
              28.30784592200007
            ],
            [
              121.53184602700003,
              28.655286235000062
            ],
            [
              121.67747619900001,
              28.755647285000066
            ],
            [
              121.69828050900003,
              28.937874866000072
            ],
            [
              121.88551930300002,
              29.065243920000057
            ],
            [
              121.89245407200008,
              29.210616068000036
            ],
            [
              121.97567131400001,
              29.26507756600006
            ],
            [
              122.00341039400007,
              29.657547677000025
            ],
            [
              121.88108105100002,
              29.540448852000054
            ],
            [
              121.74571433800008,
              29.561683853000034
            ],
            [
              121.98316086600005,
              29.76415668100003
            ],
            [
              122.38482274900002,
              29.898911807000047
            ],
            [
              122.41145226800006,
              29.97391075300004
            ],
            [
              122.1207467050001,
              30.16595701500006
            ],
            [
              122.0097903840001,
              30.11989991300004
            ],
            [
              121.89661493400001,
              29.993132142000036
            ],
            [
              121.77456298200002,
              29.970066029000066
            ],
            [
              121.683578796,
              30.014271372000053
            ],
            [
              121.41950275200008,
              30.309746741000026
            ],
            [
              121.23087700600001,
              30.317409616000077
            ],
            [
              120.86957548200007,
              30.171472831000074
            ],
            [
              120.359869881,
              30.327226798000027
            ],
            [
              120.38760896000008,
              30.39005738000003
            ],
            [
              120.59565206500008,
              30.419962515000066
            ],
            [
              120.98053180400007,
              30.399029882000036
            ],
            [
              121.02214042500009,
              30.52455830100007
            ],
            [
              121.41811606100009,
              30.710089537000044
            ],
            [
              121.33919496100009,
              30.820985921000045
            ],
            [
              121.27610950000008,
              30.860055772000067
            ],
            [
              121.15821208300008,
              30.88313502300008
            ],
            [
              121.11063944000011,
              30.93105108700007
            ],
            [
              121.11167362900005,
              31.021493710000072
            ],
            [
              121.0018690170001,
              31.09295347400007
            ],
            [
              120.87717152900007,
              31.047026002000052
            ],
            [
              120.83488622200002,
              30.96655454300003
            ],
            [
              120.60212451600012,
              30.87856105000003
            ],
            [
              120.55478315200003,
              31.003758177000066
            ],
            [
              120.42064928800005,
              31.013902106000046
            ],
            [
              120.30624099200008,
              30.969937291000065
            ],
            [
              120.03008303500008,
              31.219927537000046
            ],
            [
              119.79337621500008,
              31.21317969900008
            ],
            [
              119.73999731800006,
              31.22506099000003
            ],
            [
              119.6355716710001,
              30.862476574000027
            ],
            [
              119.37050934600006,
              30.67179752100003
            ],
            [
              119.46297294700003,
              30.49667707800006
            ],
            [
              119.30270270400001,
              30.374436614000047
            ],
            [
              119.0068191800001,
              30.427603469000076
            ],
            [
              118.96366950000004,
              29.99078306100006
            ],
            [
              118.84654893800007,
              29.94806280100005
            ],
            [
              118.8403846980001,
              29.793048076000048
            ],
            [
              118.55066541400004,
              29.573479148000047
            ],
            [
              118.42738061200009,
              29.55739431300003
            ],
            [
              118.31395859500003,
              29.48723452300004
            ],
            [
              118.29055000100004,
              29.512701785000047
            ],
            [
              118.26711036900008,
              29.433992232000037
            ],
            [
              118.16848252900002,
              29.288937358000055
            ],
            [
              118.16848252900002,
              29.186738011000045
            ],
            [
              118.38423093200004,
              28.92270143500008
            ],
            [
              118.56299389500009,
              28.733690978000027
            ],
            [
              118.59997933500006,
              28.398032730000068
            ],
            [
              118.59094838800002,
              28.390088225000056
            ],
            [
              118.82051118900006,
              28.35519961400007
            ],
            [
              118.89625737000006,
              28.252941258000078
            ],
            [
              118.84575991500003,
              28.101596975000064
            ],
            [
              118.93918020800004,
              27.96119015800008
            ],
            [
              119.04774973400004,
              27.55230679700003
            ],
            [
              119.2977121350001,
              27.491850020000072
            ],
            [
              119.50727657400012,
              27.559022164000055
            ],
            [
              119.61079635600004,
              27.69994989500003
            ],
            [
              119.694319145,
              27.68626773300008
            ],
            [
              119.89792488400008,
              27.356665184000065
            ],
            [
              120.01103918400008,
              27.363840949000064
            ],
            [
              120.2388836990001,
              27.43700716400008
            ],
            [
              120.41178698500005,
              27.39397407900003
            ],
            [
              120.54140008200011,
              27.28741374300006
            ]
          ]
        ]
      }
    },
    {
      "type": "Feature",
      "properties": {
        "shapeName": "Shanghai Municipality",
        "shapeISO": "CHN",
        "shapeID": "43563684B32591653033375",
        "shapeGroup": "CHN",
        "shapeType": "ADM1"
      },
      "geometry": {
        "type": "MultiPolygon",
        "coordinates": [
          [
            [
              [
                122.0441424600001,
                31.317851835000056
              ],
              [
                121.85809090100008,
                31.370009598000024
              ],
              [
                121.59898113400004,
                31.463474317000077
              ],
              [
                121.5953463300001,
                31.437892608000027
              ],
              [
                121.69618343500008,
                31.374860012000056
              ],
              [
                121.98875306500008,
                31.28630055800005
              ],
              [
                122.0441424600001,
                31.317851835000056
              ]
            ]
          ],
          [
            [
              [
                121.41811606100009,
                30.710089537000044
              ],
              [
                121.64626973400004,
                30.816827475000025
              ],
              [
                121.89592145800009,
                30.94478845200007
              ],
              [
                121.95833438900002,
                31.14976342500006
              ],
              [
                121.67747619900001,
                31.357257119000053
              ],
              [
                121.37472026300009,
                31.550450451000074
              ],
              [
                121.30054218900011,
                31.508298902000035
              ],
              [
                121.24398503900011,
                31.39801998300004
              ],
              [
                121.20197115600001,
                31.273801175000074
              ],
              [
                121.129254822,
                31.213012347000074
              ],
              [
                121.03876338400005,
                31.10653782600008
              ],
              [
                121.0018690170001,
                31.09295347400007
              ],
              [
                121.11167362900005,
                31.021493710000072
              ],
              [
                121.11063944000011,
                30.93105108700007
              ],
              [
                121.15821208300008,
                30.88313502300008
              ],
              [
                121.27610950000008,
                30.860055772000067
              ],
              [
                121.33919496100009,
                30.820985921000045
              ],
              [
                121.41811606100009,
                30.710089537000044
              ]
            ]
          ],
          [
            [
              [
                121.98449234100008,
                31.511780694000038
              ],
              [
                121.85667065900009,
                31.613432671000055
              ],
              [
                121.48172705700006,
                31.774154777000035
              ],
              [
                121.35390537500007,
                31.827264670000034
              ],
              [
                121.21614200500005,
                31.836917734000053
              ],
              [
                121.18067896800005,
                31.772484253000073
              ],
              [
                121.4092947690001,
                31.613432671000055
              ],
              [
                121.760094277,
                31.473027005000063
              ],
              [
                121.90495884900008,
                31.447586172000058
              ],
              [
                121.98449234100008,
                31.511780694000038
              ]
            ]
          ]
        ]
      }
    },
    {
      "type": "Feature",
      "properties": {
        "shapeName": "Jiangsu Province",
        "shapeISO": "CHN",
        "shapeID": "43563684B64367354813847",
        "shapeGroup": "CHN",
        "shapeType": "ADM1"
      },
      "geometry": {
        "type": "Polygon",
        "coordinates": [
          [
            [
              121.0018690170001,
              31.09295347400007
            ],
            [
              121.03876338400005,
              31.10653782600008
            ],
            [
              121.129254822,
              31.213012347000074
            ],
            [
              121.20197115600001,
              31.273801175000074
            ],
            [
              121.24398503900011,
              31.39801998300004
            ],
            [
              121.30054218900011,
              31.508298902000035
            ],
            [
              121.37472026300009,
              31.550450451000074
            ],
            [
              121.23711829900003,
              31.638124580000067
            ],
            [
              120.86957548200007,
              31.806239368000035
            ],
            [
              120.79676039700007,
              31.92403237600007
            ],
            [
              120.50896743700002,
              32.00345749200005
            ],
            [
              120.3564024960001,
              31.929918074000057
            ],
            [
              120.2974569490001,
              32.00639784400005
            ],
            [
              120.43615235200002,
              32.07693796900003
            ],
            [
              120.60605421900004,
              32.100439262000066
            ],
            [
              120.92505364300007,
              31.941688338000063
            ],
            [
              121.01520565500005,
              31.82391791300006
            ],
            [
              121.13309674700008,
              31.82097172400006
            ],
            [
              121.21631398700004,
              31.865154689000065
            ],
            [
              121.34807462000003,
              31.85042938500004
            ],
            [
              121.49023740700011,
              31.82097172400006
            ],
            [
              121.70174789500004,
              31.720745386000033
            ],
            [
              121.98260608400005,
              31.63222028100006
            ],
            [
              121.97567131400001,
              31.770872127000075
            ],
            [
              121.73295436,
              32.08575166400004
            ],
            [
              121.46596571200007,
              32.18558075200008
            ],
            [
              121.42088970600003,
              32.40833244600003
            ],
            [
              120.8938471780001,
              32.66557020100004
            ],
            [
              120.96666226500008,
              32.87840046500003
            ],
            [
              120.33213080000007,
              34.26505923600007
            ],
            [
              119.59011039900008,
              34.60822617700006
            ],
            [
              119.47568669200007,
              34.770736052000075
            ],
            [
              119.23643712500007,
              34.83337377500004
            ],
            [
              119.25030666300006,
              35.08061065700008
            ],
            [
              119.43407807100004,
              35.16002236800006
            ],
            [
              119.44213042800004,
              35.186350823000055
            ],
            [
              119.28151313,
              35.199699183000064
            ],
            [
              119.17402419300004,
              35.194032253000046
            ],
            [
              119.06306787100004,
              35.17419488200005
            ],
            [
              118.96598109000001,
              35.08912275700004
            ],
            [
              118.82381830200006,
              34.80775500500005
            ],
            [
              118.60537304500008,
              34.728001232000054
            ],
            [
              118.4978841090001,
              34.545417789000055
            ],
            [
              118.2933083910001,
              34.513995805000036
            ],
            [
              118.27250408000009,
              34.67098709000004
            ],
            [
              118.08526528700008,
              34.767887752000036
            ],
            [
              117.97084158000007,
              34.75079588800003
            ],
            [
              117.89109172300005,
              34.63390683700004
            ],
            [
              117.6587769250001,
              34.57397294000003
            ],
            [
              117.48540767400004,
              34.65957954800007
            ],
            [
              117.28429934100006,
              34.60822617700006
            ],
            [
              117.19761471400011,
              34.790671399000075
            ],
            [
              117.02077807600006,
              35.052230577000046
            ],
            [
              116.85434359400006,
              35.060745637000025
            ],
            [
              116.58042017500009,
              34.99828124700008
            ],
            [
              116.51800724400005,
              34.759342262000075
            ],
            [
              116.45645125200008,
              34.73220183800004
            ],
            [
              116.53642647200002,
              34.69933253000005
            ],
            [
              116.70086234300004,
              34.571695559000034
            ],
            [
              116.96147768600008,
              34.508655678000025
            ],
            [
              117.05869134700004,
              34.477970371000026
            ],
            [
              117.06360374000008,
              34.30654350300006
            ],
            [
              117.22034784000004,
              34.128827122000075
            ],
            [
              117.46111970400011,
              34.12748948900003
            ],
            [
              117.74067361300001,
              34.06325823700007
            ],
            [
              117.83762872800003,
              33.95073633900006
            ],
            [
              117.88449036500003,
              33.81255975400006
            ],
            [
              118.01376385000003,
              33.805846459000065
            ],
            [
              118.23191285400003,
              33.83001185300003
            ],
            [
              118.21138563900001,
              33.61741350300008
            ],
            [
              118.09697734300005,
              33.37725290800006
            ],
            [
              118.11275779900006,
              33.304745223000054
            ],
            [
              118.29423302700002,
              33.248675228000025
            ],
            [
              118.35735484400004,
              33.103385815000024
            ],
            [
              118.41653154900007,
              32.911500431000036
            ],
            [
              118.55066541400004,
              32.82534746300007
            ],
            [
              118.834713598,
              32.82866258700005
            ],
            [
              118.9057256420001,
              33.027343287000065
            ],
            [
              119.02013393900006,
              33.03726560400003
            ],
            [
              119.15821291600002,
              32.94130310300005
            ],
            [
              119.19371893900006,
              32.86180701100005
            ],
            [
              119.2292249620001,
              32.66275497500004
            ],
            [
              119.14637757700007,
              32.58965783100007
            ],
            [
              118.98462791700001,
              32.66275497500004
            ],
            [
              118.75975643700008,
              32.66275497500004
            ],
            [
              118.74397598400003,
              32.58633381400006
            ],
            [
              118.83076848300004,
              32.423306172000025
            ],
            [
              118.71241507400009,
              32.26665535500007
            ],
            [
              118.49148871000011,
              32.11641668800007
            ],
            [
              118.61378723200005,
              31.898968169000057
            ],
            [
              118.79920757500008,
              31.79508050000004
            ],
            [
              118.8426038240001,
              31.731349618000024
            ],
            [
              118.98857303000011,
              31.68436194800006
            ],
            [
              118.96095723300004,
              31.496173501000044
            ],
            [
              118.901780529,
              31.432237567000072
            ],
            [
              118.94123166500003,
              31.341306191000058
            ],
            [
              119.12665200900005,
              31.300863999000057
            ],
            [
              119.32390769100004,
              31.358151976000045
            ],
            [
              119.43437087400002,
              31.331197271000065
            ],
            [
              119.505382918,
              31.277264700000046
            ],
            [
              119.73999731800006,
              31.22506099000003
            ],
            [
              119.79337621500008,
              31.21317969900008
            ],
            [
              120.03008303500008,
              31.219927537000046
            ],
            [
              120.30624099200008,
              30.969937291000065
            ],
            [
              120.42064928800005,
              31.013902106000046
            ],
            [
              120.55478315200003,
              31.003758177000066
            ],
            [
              120.60212451600012,
              30.87856105000003
            ],
            [
              120.83488622200002,
              30.96655454300003
            ],
            [
              120.87717152900007,
              31.047026002000052
            ],
            [
              121.0018690170001,
              31.09295347400007
            ]
          ]
        ]
      }
    },
    {
      "type": "Feature",
      "properties": {
        "shapeName": "Anhui Province",
        "shapeISO": "CHN",
        "shapeID": "43563684B75549295130005",
        "shapeGroup": "CHN",
        "shapeType": "ADM1"
      },
      "geometry": {
        "type": "Polygon",
        "coordinates": [
          [
            [
              118.29055000100004,
              29.512701785000047
            ],
            [
              118.31395859500003,
              29.48723452300004
            ],
            [
              118.42738061200009,
              29.55739431300003
            ],
            [
              118.55066541400004,
              29.573479148000047
            ],
            [
              118.8403846980001,
              29.793048076000048
            ],
            [
              118.84654893800007,
              29.94806280100005
            ],
            [
              118.96366950000004,
              29.99078306100006
            ],
            [
              119.0068191800001,
              30.427603469000076
            ],
            [
              119.30270270400001,
              30.374436614000047
            ],
            [
              119.46297294700003,
              30.49667707800006
            ],
            [
              119.37050934600006,
              30.67179752100003
            ],
            [
              119.6355716710001,
              30.862476574000027
            ],
            [
              119.73999731800006,
              31.22506099000003
            ],
            [
              119.505382918,
              31.277264700000046
            ],
            [
              119.43437087400002,
              31.331197271000065
            ],
            [
              119.32390769100004,
              31.358151976000045
            ],
            [
              119.12665200900005,
              31.300863999000057
            ],
            [
              118.94123166500003,
              31.341306191000058
            ],
            [
              118.901780529,
              31.432237567000072
            ],
            [
              118.96095723300004,
              31.496173501000044
            ],
            [
              118.98857303000011,
              31.68436194800006
            ],
            [
              118.8426038240001,
              31.731349618000024
            ],
            [
              118.79920757500008,
              31.79508050000004
            ],
            [
              118.61378723200005,
              31.898968169000057
            ],
            [
              118.49148871000011,
              32.11641668800007
            ],
            [
              118.71241507400009,
              32.26665535500007
            ],
            [
              118.83076848300004,
              32.423306172000025
            ],
            [
              118.74397598400003,
              32.58633381400006
            ],
            [
              118.75975643700008,
              32.66275497500004
            ],
            [
              118.98462791700001,
              32.66275497500004
            ],
            [
              119.14637757700007,
              32.58965783100007
            ],
            [
              119.2292249620001,
              32.66275497500004
            ],
            [
              119.19371893900006,
              32.86180701100005
            ],
            [
              119.15821291600002,
              32.94130310300005
            ],
            [
              119.02013393900006,
              33.03726560400003
            ],
            [
              118.9057256420001,
              33.027343287000065
            ],
            [
              118.834713598,
              32.82866258700005
            ],
            [
              118.55066541400004,
              32.82534746300007
            ],
            [
              118.41653154900007,
              32.911500431000036
            ],
            [
              118.35735484400004,
              33.103385815000024
            ],
            [
              118.29423302700002,
              33.248675228000025
            ],
            [
              118.11275779900006,
              33.304745223000054
            ],
            [
              118.09697734300005,
              33.37725290800006
            ],
            [
              118.21138563900001,
              33.61741350300008
            ],
            [
              118.23191285400003,
              33.83001185300003
            ],
            [
              118.01376385000003,
              33.805846459000065
            ],
            [
              117.88449036500003,
              33.81255975400006
            ],
            [
              117.83762872800003,
              33.95073633900006
            ],
            [
              117.74067361300001,
              34.06325823700007
            ],
            [
              117.46111970400011,
              34.12748948900003
            ],
            [
              117.22034784000004,
              34.128827122000075
            ],
            [
              117.06360374000008,
              34.30654350300006
            ],
            [
              117.05869134700004,
              34.477970371000026
            ],
            [
              116.96147768600008,
              34.508655678000025
            ],
            [
              116.70086234300004,
              34.571695559000034
            ],
            [
              116.53642647200002,
              34.69933253000005
            ],
            [
              116.45645125200008,
              34.73220183800004
            ],
            [
              116.3758444560001,
              34.69664831500006
            ],
            [
              116.2696651010001,
              34.706579856000076
            ],
            [
              116.2628151020001,
              34.66940533800005
            ],
            [
              116.28806382800008,
              34.57382777600003
            ],
            [
              116.37643437500003,
              34.48022154300003
            ],
            [
              116.53550135800003,
              34.39901108500004
            ],
            [
              116.62134703100003,
              34.388593782000044
            ],
            [
              116.65417037700001,
              34.35733409100004
            ],
            [
              116.676894231,
              34.28852172200004
            ],
            [
              116.68699372200001,
              34.194595796000044
            ],
            [
              116.71476732200006,
              34.15072784500006
            ],
            [
              116.73244143000011,
              34.05037266800008
            ],
            [
              116.62639677600009,
              33.99805723400004
            ],
            [
              116.5077277580001,
              33.89332968000008
            ],
            [
              116.31836230200008,
              33.83043133000007
            ],
            [
              116.23504150200006,
              33.884945911000045
            ],
            [
              116.13657146500009,
              34.02317266700004
            ],
            [
              116.05325066500006,
              34.12565021000006
            ],
            [
              115.96740499200007,
              34.15908540300006
            ],
            [
              115.82348724400003,
              34.161174663000054
            ],
            [
              115.74521619000006,
              34.09429270100003
            ],
            [
              115.71239284400008,
              33.96874650900003
            ],
            [
              115.75784055300005,
              33.78427643800006
            ],
            [
              115.73511669900006,
              33.69399275600006
            ],
            [
              115.48767917000009,
              33.630947898000045
            ],
            [
              115.42708222400006,
              33.48787532800003
            ],
            [
              115.43970658800004,
              33.40360436700007
            ],
            [
              115.4119329880001,
              33.29181933600006
            ],
            [
              115.27811473300005,
              33.20313311500007
            ],
            [
              115.03825182300011,
              33.20524573700004
            ],
            [
              115.00037873100007,
              33.12915922700006
            ],
            [
              115.04835131200002,
              33.05935528100002
            ],
            [
              115.22761727800003,
              33.03184154300004
            ],
            [
              115.34376142400004,
              32.93653534900005
            ],
            [
              115.30083858700004,
              32.82627571100005
            ],
            [
              115.34123655100007,
              32.70100747400005
            ],
            [
              115.53312687900006,
              32.68613345000006
            ],
            [
              115.6467461530001,
              32.53299976200003
            ],
            [
              115.79066389900004,
              32.511710495000045
            ],
            [
              115.86893495400011,
              32.60321853700003
            ],
            [
              116.01790244500012,
              32.656377966000036
            ],
            [
              115.99012884500007,
              32.486156720000054
            ],
            [
              116.08102426500011,
              32.266521918000024
            ],
            [
              115.9749796100001,
              31.924285600000076
            ],
            [
              115.78308928000001,
              31.898566249000055
            ],
            [
              115.58614920700006,
              31.795616995000046
            ],
            [
              115.54575124300004,
              31.673215666000033
            ],
            [
              115.51292789600006,
              31.51406773700006
            ],
            [
              115.48626782300005,
              31.518355946000042
            ],
            [
              115.67073244300002,
              31.307605571000067
            ],
            [
              115.93505505900009,
              31.270520960000056
            ],
            [
              116.1086400590001,
              31.15580364500005
            ],
            [
              116.124420514,
              31.054467018000025
            ],
            [
              115.89560392300007,
              30.83453396400006
            ],
            [
              116.03368290000003,
              30.603909575000046
            ],
            [
              116.01001221900003,
              30.46459050800007
            ],
            [
              116.13625585600005,
              30.365927232000047
            ],
            [
              116.17444455500004,
              30.26607395800005
            ],
            [
              116.22494201100005,
              30.150427941000032
            ],
            [
              116.22494201100005,
              30.058687504000034
            ],
            [
              116.2457002110001,
              29.88968471800007
            ],
            [
              116.24671903800004,
              29.88138254300003
            ],
            [
              116.65701085700005,
              30.014698381000073
            ],
            [
              116.72802290300001,
              30.13760032400006
            ],
            [
              116.81876051800009,
              30.147835258000043
            ],
            [
              116.97656506400006,
              30.001033190000044
            ],
            [
              116.92133347300012,
              29.83348201700005
            ],
            [
              116.81481540400011,
              29.754738425000028
            ],
            [
              116.85032142700004,
              29.655364793000047
            ],
            [
              116.96867483800008,
              29.63479245900004
            ],
            [
              117.18565608900008,
              29.823214628000073
            ],
            [
              117.20932677100006,
              29.93267901400003
            ],
            [
              117.26455836200012,
              29.977114576000076
            ],
            [
              117.3552959760001,
              29.973697161000075
            ],
            [
              117.42236290900007,
              29.91558312500007
            ],
            [
              117.49732006700003,
              29.898484301000053
            ],
            [
              117.61961859100006,
              29.730760690000068
            ],
            [
              117.70246597700009,
              29.682788027000072
            ],
            [
              118.08908711700008,
              29.641650371000026
            ],
            [
              118.20349541300004,
              29.60735614600003
            ],
            [
              118.29055000100004,
              29.512701785000047
            ]
          ]
        ]
      }
    }
  ]
}